[{"OBJECT_NAME":"STARLINK-32301","OBJECT_ID":"2024-193D","EPOCH":"2025-10-07T19:02:10.957632","MEAN_MOTION":15.30187326,"ECCENTRICITY":0.00016065,"INCLINATION":53.1633,"RA_OF_ASC_NODE":81.4714,"ARG_OF_PERICENTER":79.3197,"MEAN_ANOMALY":280.7985,"EPHEMERIS_TYPE":0,"CLASSIFICATION_TYPE":"U","NORAD_CAT_ID":61664,"ELEMENT_SET_NO":999,"REV_AT_EPOCH":5311,"BSTAR":0.00015161987,"MEAN_MOTION_DOT":4.132e-5,"MEAN_MOTION_DDOT":0},{"OBJECT_NAME":"STARLINK-32439","OBJECT_ID":"2024-193E","EPOCH":"2025-10-07T11:19:30.658368","MEAN_MOTION":15.30200651,"ECCENTRICITY":8.973e-5,"INCLINATION":53.1594,"RA_OF_ASC_NODE":83.0158,"ARG_OF_PERICENTER":82.5194,"MEAN_ANOMALY":277.5909,"EPHEMERIS_TYPE":0,"CLASSIFICATION_TYPE":"U","NORAD_CAT_ID":61665,"ELEMENT_SET_NO":999,"REV_AT_EPOCH":5306,"BSTAR":4.9432875e-5,"MEAN_MOTION_DOT":1.105e-5,"MEAN_MOTION_DDOT":0},{"OBJECT_NAME":"STARLINK-32428","OBJECT_ID":"2024-193F","EPOCH":"2025-10-08T03:30:16.513344","MEAN_MOTION":15.30192478,"ECCENTRICITY":5.945e-5,"INCLINATION":53.1563,"RA_OF_ASC_NODE":79.404,"ARG_OF_PERICENTER":78.6041,"MEAN_ANOMALY":281.5027,"EPHEMERIS_TYPE":0,"CLASSIFICATION_TYPE":"U","NORAD_CAT_ID":61666,"ELEMENT_SET_NO":999,"REV_AT_EPOCH":5317,"BSTAR":5.7246486e-5,"MEAN_MOTION_DOT":1.337e-5,"MEAN_MOTION_DDOT":0},{"OBJECT_NAME":"STARLINK-32414","OBJECT_ID":"2024-193G","EPOCH":"2025-10-08T04:17:22.662528","MEAN_MOTION":15.30196259,"ECCENTRICITY":0.00011303,"INCLINATION":53.1592,"RA_OF_ASC_NODE":79.6127,"ARG_OF_PERICENTER":81.9044,"MEAN_ANOMALY":278.2085,"EPHEMERIS_TYPE":0,"CLASSIFICATION_TYPE":"U","NORAD_CAT_ID":61667,"ELEMENT_SET_NO":999,"REV_AT_EPOCH":5317,"BSTAR":9.9262622e-5,"MEAN_MOTION_DOT":2.581e-5,"MEAN_MOTION_DDOT":0},{"OBJECT_NAME":"STARLINK-32441","OBJECT_ID":"2024-193H","EPOCH":"2025-10-08T04:05:13.417152","MEAN_MOTION":15.30195338,"ECCENTRICITY":7.641e-5,"INCLINATION":53.1583,"RA_OF_ASC_NODE":79.5595,"ARG_OF_PERICENTER":81.4553,"MEAN_ANOMALY":278.6534,"EPHEMERIS_TYPE":0,"CLASSIFICATION_TYPE":"U","NORAD_CAT_ID":61668,"ELEMENT_SET_NO":999,"REV_AT_EPOCH":5317,"BSTAR":1.3448743e-5,"MEAN_MOTION_DOT":3.9e-7,"MEAN_MOTION_DDOT":0},{"OBJECT_NAME":"STARLINK-32400","OBJECT_ID":"2024-193J","EPOCH":"2025-10-07T19:48:22.359456","MEAN_MOTION":15.30187836,"ECCENTRICITY":0.00011574,"INCLINATION":53.1599,"RA_OF_ASC_NODE":78.828,"ARG_OF_PERICENTER":97.8519,"MEAN_ANOMALY":262.2613,"EPHEMERIS_TYPE":0,"CLASSIFICATION_TYPE":"U","NORAD_CAT_ID":61669,"ELEMENT_SET_NO":999,"REV_AT_EPOCH":5315,"BSTAR":4.2016827e-5,"MEAN_MOTION_DOT":8.85e-6,"MEAN_MOTION_DDOT":0},{"OBJECT_NAME":"STARLINK-32449","OBJECT_ID":"2024-193K","EPOCH":"2025-10-08T03:56:06.670176","MEAN_MOTION":15.30197842,"ECCENTRICITY":5.415e-5,"INCLINATION":53.1588,"RA_OF_ASC_NODE":79.518,"ARG_OF_PERICENTER":88.8099,"MEAN_ANOMALY":271.2963,"EPHEMERIS_TYPE":0,"CLASSIFICATION_TYPE":"U","NORAD_CAT_ID":61670,"ELEMENT_SET_NO":999,"REV_AT_EPOCH":5317,"BSTAR":0.00016412186,"MEAN_MOTION_DOT":4.505e-5,"MEAN_MOTION_DDOT":0},{"OBJECT_NAME":"STARLINK-32453","OBJECT_ID":"2024-193L","EPOCH":"2025-10-07T19:47:38.042304","MEAN_MOTION":15.30169663,"ECCENTRICITY":0.00011852,"INCLINATION":53.1566,"RA_OF_ASC_NODE":80.9559,"ARG_OF_PERICENTER":87.7252,"MEAN_ANOMALY":272.3884,"EPHEMERIS_TYPE":0,"CLASSIFICATION_TYPE":"U","NORAD_CAT_ID":61671,"ELEMENT_SET_NO":999,"REV_AT_EPOCH":5312,"BSTAR":-5.8952604e-5,"MEAN_MOTION_DOT":-2.103e-5,"MEAN_MOTION_DDOT":0},{"OBJECT_NAME":"STARLINK-32443","OBJECT_ID":"2024-193M","EPOCH":"2025-10-08T03:34:51.368160","MEAN_MOTION":15.30188211,"ECCENTRICITY":9.079e-5,"INCLINATION":53.1554,"RA_OF_ASC_NODE":79.4244,"ARG_OF_PERICENTER":68.9969,"MEAN_ANOMALY":291.1129,"EPHEMERIS_TYPE":0,"CLASSIFICATION_TYPE":"U","NORAD_CAT_ID":61672,"ELEMENT_SET_NO":999,"REV_AT_EPOCH":5317,"BSTAR":-5.2077945e-5,"MEAN_MOTION_DOT":-1.9e-5,"MEAN_MOTION_DDOT":0},{"OBJECT_NAME":"STARLINK-32417","OBJECT_ID":"2024-193N","EPOCH":"2025-10-08T03:28:45.666336","MEAN_MOTION":15.30191093,"ECCENTRICITY":7.109e-5,"INCLINATION":53.1575,"RA_OF_ASC_NODE":79.3982,"ARG_OF_PERICENTER":90.5251,"MEAN_ANOMALY":269.5831,"EPHEMERIS_TYPE":0,"CLASSIFICATION_TYPE":"U","NORAD_CAT_ID":61673,"ELEMENT_SET_NO":999,"REV_AT_EPOCH":5317,"BSTAR":1.3735273e-5,"MEAN_MOTION_DOT":4.8e-7,"MEAN_MOTION_DDOT":0},{"OBJECT_NAME":"STARLINK-32326","OBJECT_ID":"2024-193P","EPOCH":"2025-10-08T03:25:42.672000","MEAN_MOTION":15.30189381,"ECCENTRICITY":0.0001237,"INCLINATION":53.1605,"RA_OF_ASC_NODE":79.3831,"ARG_OF_PERICENTER":114.8998,"MEAN_ANOMALY":245.2131,"EPHEMERIS_TYPE":0,"CLASSIFICATION_TYPE":"U","NORAD_CAT_ID":61674,"ELEMENT_SET_NO":999,"REV_AT_EPOCH":5317,"BSTAR":8.9753886e-5,"MEAN_MOTION_DOT":2.299e-5,"MEAN_MOTION_DDOT":0},{"OBJECT_NAME":"STARLINK-32294","OBJECT_ID":"2024-193Q","EPOCH":"2025-10-08T03:21:09.255744","MEAN_MOTION":15.30198408,"ECCENTRICITY":9.953e-5,"INCLINATION":53.1594,"RA_OF_ASC_NODE":79.3648,"ARG_OF_PERICENTER":97.6867,"MEAN_ANOMALY":262.4247,"EPHEMERIS_TYPE":0,"CLASSIFICATION_TYPE":"U","NORAD_CAT_ID":61675,"ELEMENT_SET_NO":999,"REV_AT_EPOCH":5317,"BSTAR":7.4833068e-5,"MEAN_MOTION_DOT":1.858e-5,"MEAN_MOTION_DDOT":0},{"OBJECT_NAME":"STARLINK-32309","OBJECT_ID":"2024-193R","EPOCH":"2025-10-07T11:25:25.398624","MEAN_MOTION":15.30204548,"ECCENTRICITY":0.00038124,"INCLINATION":53.1599,"RA_OF_ASC_NODE":82.3296,"ARG_OF_PERICENTER":95.6003,"MEAN_ANOMALY":264.5432,"EPHEMERIS_TYPE":0,"CLASSIFICATION_TYPE":"U","NORAD_CAT_ID":61676,"ELEMENT_SET_NO":999,"REV_AT_EPOCH":5307,"BSTAR":0.00012602408,"MEAN_MOTION_DOT":3.374e-5,"MEAN_MOTION_DDOT":0},{"OBJECT_NAME":"STARLINK-32323","OBJECT_ID":"2024-193S","EPOCH":"2025-10-08T03:15:04.766976","MEAN_MOTION":15.30199174,"ECCENTRICITY":0.0001169,"INCLINATION":53.159,"RA_OF_ASC_NODE":79.3364,"ARG_OF_PERICENTER":86.7411,"MEAN_ANOMALY":273.3723,"EPHEMERIS_TYPE":0,"CLASSIFICATION_TYPE":"U","NORAD_CAT_ID":61677,"ELEMENT_SET_NO":999,"REV_AT_EPOCH":5317,"BSTAR":1.7334932e-5,"MEAN_MOTION_DOT":1.54e-6,"MEAN_MOTION_DDOT":0},{"OBJECT_NAME":"STARLINK-32363","OBJECT_ID":"2024-193T","EPOCH":"2025-10-07T20:52:47.091072","MEAN_MOTION":15.30194985,"ECCENTRICITY":8.85e-5,"INCLINATION":53.1602,"RA_OF_ASC_NODE":80.5216,"ARG_OF_PERICENTER":76.7641,"MEAN_ANOMALY":283.3458,"EPHEMERIS_TYPE":0,"CLASSIFICATION_TYPE":"U","NORAD_CAT_ID":61678,"ELEMENT_SET_NO":999,"REV_AT_EPOCH":5313,"BSTAR":5.722e-5,"MEAN_MOTION_DOT":1.336e-5,"MEAN_MOTION_DDOT":0},{"OBJECT_NAME":"STARLINK-32395","OBJECT_ID":"2024-193U","EPOCH":"2025-10-07T19:11:17.324448","MEAN_MOTION":15.30205296,"ECCENTRICITY":0.00010951,"INCLINATION":53.1627,"RA_OF_ASC_NODE":81.5038,"ARG_OF_PERICENTER":325.717,"MEAN_ANOMALY":34.376,"EPHEMERIS_TYPE":0,"CLASSIFICATION_TYPE":"U","NORAD_CAT_ID":61679,"ELEMENT_SET_NO":999,"REV_AT_EPOCH":5311,"BSTAR":6.9414895e-5,"MEAN_MOTION_DOT":1.698e-5,"MEAN_MOTION_DDOT":0}]
