STARLINK-32301          
1 61664U 24193D   25280.79318238  .00004132  00000+0  15162-3 0  9997
2 61664  53.1633  81.4714 0001606  79.3197 280.7985 15.30187326 53115
STARLINK-32439          
1 61665U 24193E   25280.47188262  .00001105  00000+0  49433-4 0  9991
2 61665  53.1594  83.0158 0000897  82.5194 277.5909 15.30200651 53067
STARLINK-32428          
1 61666U 24193F   25281.14602446  .00001337  00000+0  57246-4 0  9990
2 61666  53.1563  79.4040 0000594  78.6041 281.5027 15.30192478 53179
STARLINK-32414          
1 61667U 24193G   25281.17873452  .00002581  00000+0  99263-4 0  9998
2 61667  53.1592  79.6127 0001130  81.9044 278.2085 15.30196259 53175
STARLINK-32441          
1 61668U 24193H   25281.17029418  .00000039  00000+0  13449-4 0  9992
2 61668  53.1583  79.5595 0000764  81.4553 278.6534 15.30195338 53176
STARLINK-32400          
1 61669U 24193J   25280.82525879  .00000885  00000+0  42017-4 0  9998
2 61669  53.1599  78.8280 0001157  97.8519 262.2613 15.30187836 53156
STARLINK-32449          
1 61670U 24193K   25281.16396609  .00004505  00000+0  16412-3 0  9997
2 61670  53.1588  79.5180 0000541  88.8099 271.2963 15.30197842 53170
STARLINK-32453          
1 61671U 24193L   25280.82474586 -.00002103  00000+0 -58953-4 0  9992
2 61671  53.1566  80.9559 0001185  87.7252 272.3884 15.30169663 53126
STARLINK-32443          
1 61672U 24193M   25281.14920565 -.00001900  00000+0 -52078-4 0  9998
2 61672  53.1554  79.4244 0000907  68.9969 291.1129 15.30188211 53171
STARLINK-32417          
1 61673U 24193N   25281.14497299  .00000048  00000+0  13735-4 0  9999
2 61673  53.1575  79.3982 0000710  90.5251 269.5831 15.30191093 53171
STARLINK-32326          
1 61674U 24193P   25281.14285500  .00002299  00000+0  89754-4 0  9994
2 61674  53.1605  79.3831 0001237 114.8998 245.2131 15.30189381 53173
STARLINK-32294          
1 61675U 24193Q   25281.13969046  .00001858  00000+0  74833-4 0  9990
2 61675  53.1594  79.3648 0000995  97.6867 262.4247 15.30198408 53179
STARLINK-32309          
1 61676U 24193R   25280.47598841  .00003374  00000+0  12602-3 0  9998
2 61676  53.1599  82.3296 0003812  95.6003 264.5432 15.30204548 53070
STARLINK-32323          
1 61677U 24193S   25281.13547184  .00000154  00000+0  17335-4 0  9999
2 61677  53.1590  79.3364 0001169  86.7411 273.3723 15.30199174 53171
STARLINK-32363          
1 61678U 24193T   25280.86998948  .00001336  00000+0  57220-4 0  9997
2 61678  53.1602  80.5216 0000885  76.7641 283.3458 15.30194985 53131
STARLINK-32395          
1 61679U 24193U   25280.79950607  .00001698  00000+0  69415-4 0  9990
2 61679  53.1627  81.5038 0001095 325.7170  34.3760 15.30205296 53116
